{
  "type": "FeatureCollection",
  "features": [
    {
      "type": "Feature",
      "properties": {
        "norad_id": 50032,
        "name": "COSMOS 1408 DEB",
        "group": "cosmos-1408-debris",
        "lat": 13.611199187254128,
        "lon": 64.58823838706819,
        "alt_km": 439.4085265800277,
        "timestamp": "2025-12-08T13:49:32.062952+00:00",
        "meta_object_name": "COSMOS 1408 DEB",
        "meta_object_id": "1982-092RU",
        "meta_epoch": "2025-12-08T05:59:50.233344",
        "meta_mean_motion": 15.45625036,
        "meta_eccentricity": 0.0014898,
        "meta_inclination": 82.5644,
        "meta_ra_of_asc_node": 63.1103,
        "meta_arg_of_pericenter": 225.9875,
        "meta_mean_anomaly": 134.0147,
        "meta_ephemeris_type": 0,
        "meta_classification_type": "U",
        "meta_norad_cat_id": 50032,
        "meta_element_set_no": 999,
        "meta_rev_at_epoch": 22534,
        "meta_bstar": 0.00014643307,
        "meta_mean_motion_dot": 7.118e-05,
        "meta_mean_motion_ddot": 0,
        "tle_line1": "1 50032U 82092RU  25342.24988696  .00007118  00000+0  14643-3 0  9996",
        "tle_line2": "2 50032  82.5644  63.1103 0014898 225.9875 134.0147 15.45625036225346"
      },
      "geometry": {
        "type": "Point",
        "coordinates": [
          64.58823838706819,
          13.611199187254128
        ]
      }
    },
    {
      "type": "Feature",
      "properties": {
        "norad_id": 50058,
        "name": "COSMOS 1408 DEB",
        "group": "cosmos-1408-debris",
        "lat": -56.90827100750056,
        "lon": 62.21474728934888,
        "alt_km": 394.9458474132962,
        "timestamp": "2025-12-08T13:49:32.062972+00:00",
        "meta_object_name": "COSMOS 1408 DEB",
        "meta_object_id": "1982-092SW",
        "meta_epoch": "2025-12-08T07:55:44.645376",
        "meta_mean_motion": 15.63709561,
        "meta_eccentricity": 0.0016354,
        "meta_inclination": 82.6131,
        "meta_ra_of_asc_node": 73.955,
        "meta_arg_of_pericenter": 114.3465,
        "meta_mean_anomaly": 245.9504,
        "meta_ephemeris_type": 0,
        "meta_classification_type": "U",
        "meta_norad_cat_id": 50058,
        "meta_element_set_no": 999,
        "meta_rev_at_epoch": 22735,
        "meta_bstar": 0.0004087218,
        "meta_mean_motion_dot": 0.00038485,
        "meta_mean_motion_ddot": 0,
        "tle_line1": "1 50058U 82092SW  25342.33037784  .00038485  00000+0  40872-3 0  9991",
        "tle_line2": "2 50058  82.6131  73.9550 0016354 114.3465 245.9504 15.63709561227354"
      },
      "geometry": {
        "type": "Point",
        "coordinates": [
          62.21474728934888,
          -56.90827100750056
        ]
      }
    },
    {
      "type": "Feature",
      "properties": {
        "norad_id": 50404,
        "name": "COSMOS 1408 DEB",
        "group": "cosmos-1408-debris",
        "lat": 81.91090049359066,
        "lon": -66.10832781739309,
        "alt_km": 588.0225025633672,
        "timestamp": "2025-12-08T13:49:32.062986+00:00",
        "meta_object_name": "COSMOS 1408 DEB",
        "meta_object_id": "1982-092ADS",
        "meta_epoch": "2025-12-08T02:18:52.795296",
        "meta_mean_motion": 15.12826412,
        "meta_eccentricity": 0.01738853,
        "meta_inclination": 82.2031,
        "meta_ra_of_asc_node": 219.7838,
        "meta_arg_of_pericenter": 214.9126,
        "meta_mean_anomaly": 144.0605,
        "meta_ephemeris_type": 0,
        "meta_classification_type": "U",
        "meta_norad_cat_id": 50404,
        "meta_element_set_no": 999,
        "meta_rev_at_epoch": 21123,
        "meta_bstar": 0.0031525673,
        "meta_mean_motion_dot": 0.00081169,
        "meta_mean_motion_ddot": 0,
        "tle_line1": "1 50404U 82092ADS 25342.09644439  .00081169  00000+0  31526-2 0  9992",
        "tle_line2": "2 50404  82.2031 219.7838 0173885 214.9126 144.0605 15.12826412211237"
      },
      "geometry": {
        "type": "Point",
        "coordinates": [
          -66.10832781739309,
          81.91090049359066
        ]
      }
    },
    {
      "type": "Feature",
      "properties": {
        "norad_id": 50621,
        "name": "COSMOS 1408 DEB",
        "group": "cosmos-1408-debris",
        "lat": 68.12485464946548,
        "lon": 97.47949923167663,
        "alt_km": 394.4079886516729,
        "timestamp": "2025-12-08T13:49:32.062998+00:00",
        "meta_object_name": "COSMOS 1408 DEB",
        "meta_object_id": "1982-092ALR",
        "meta_epoch": "2025-12-08T07:21:18.073152",
        "meta_mean_motion": 15.56312621,
        "meta_eccentricity": 0.00288415,
        "meta_inclination": 82.5714,
        "meta_ra_of_asc_node": 78.7954,
        "meta_arg_of_pericenter": 168.5442,
        "meta_mean_anomaly": 191.6476,
        "meta_ephemeris_type": 0,
        "meta_classification_type": "U",
        "meta_norad_cat_id": 50621,
        "meta_element_set_no": 999,
        "meta_rev_at_epoch": 22181,
        "meta_bstar": 0.00044459454,
        "meta_mean_motion_dot": 0.00031977,
        "meta_mean_motion_ddot": 0,
        "tle_line1": "1 50621U 82092ALR 25342.30645918  .00031977  00000+0  44459-3 0  9992",
        "tle_line2": "2 50621  82.5714  78.7954 0028841 168.5442 191.6476 15.56312621221816"
      },
      "geometry": {
        "type": "Point",
        "coordinates": [
          97.47949923167663,
          68.12485464946548
        ]
      }
    }
  ]
}